NORAD_CAT_ID,OBJECT_NAME,OBJECT_TYPE,EPOCH,MEAN_MOTION,ECCENTRICITY,INCLINATION,RA_OF_ASC_NODE,ARG_OF_PERICENTER,MEAN_ANOMALY,BSTAR,MEAN_MOTION_DOT,MEAN_MOTION_DDOT,TLE_LINE0,TLE_LINE1,TLE_LINE2,SEMIMAJOR_AXIS,PERIOD,APOGEE,PERIGEE,DECAYED
52501.0,STARLINK-3907,PAYLOAD,2023-04-29 20:29:36,15.08833919,0.0001273,53.2167,59.3639,105.7298,254.3834,2.5006e-05,1.1e-06,0.0,0 STARLINK-3907,1 52501U 22049BC  23119.85389457  .00000110  00000-0  25006-4 0  9994,2 52501  53.2167  59.3639 0001273 105.7298 254.3834 15.08833919 54824,6917.899,95.438,540.645,538.883,0.0
52501.0,STARLINK-3907,PAYLOAD,2023-04-30 06:01:54,15.08845975,0.0001354,53.2173,57.5796,117.2708,242.8422,-0.00013914,-2.502e-05,0.0,0 STARLINK-3907,1 52501U 22049BC  23120.25132963 -.00002502  00000-0 -13914-3 0  9991,2 52501  53.2173  57.5796 0001354 117.2708 242.8422 15.08845975 54885,6917.862,95.437,540.664,538.79,0.0
52501.0,STARLINK-3907,PAYLOAD,2023-04-30 20:20:23,15.08832436,0.0001129,53.2174,54.9033,99.0745,261.0375,1.6568e-05,-2.4e-07,0.0,0 STARLINK-3907,1 52501U 22049BC  23120.84749963 -.00000024  00000-0  16568-4 0  9995,2 52501  53.2174  54.9033 0001129  99.0745 261.0375 15.08832436 54977,6917.904,95.438,540.55,538.987,0.0
52501.0,STARLINK-3907,PAYLOAD,2023-05-01 05:52:42,15.08837904,0.0001173,53.2182,53.1192,94.4412,265.6714,0.00012798,1.749e-05,0.0,0 STARLINK-3907,1 52501U 22049BC  23121.24493983  .00001749  00000-0  12798-3 0  9992,2 52501  53.2182  53.1192 0001173  94.4412 265.6714 15.08837904 54873,6917.887,95.438,540.563,538.94,0.0
52501.0,STARLINK-3907,PAYLOAD,2023-05-01 23:21:57,15.08842047,0.0001292,53.2186,49.8481,95.3209,264.793,0.00010312,1.354e-05,0.0,0 STARLINK-3907,1 52501U 22049BC  23121.97357934  .00001354  00000-0  10312-3 0  9999,2 52501  53.2186  49.8481 0001292  95.3209 264.7930 15.08842047 55141,6917.874,95.437,540.633,538.845,0.0
52501.0,STARLINK-3907,PAYLOAD,2023-05-02 05:43:29,15.08851448,0.0001156,53.2181,48.6581,92.2753,267.8372,0.00029714,4.446e-05,0.0,0 STARLINK-3907,1 52501U 22049BC  23122.23853490  .00004446  00000-0  29714-3 0  9998,2 52501  53.2181  48.6581 0001156  92.2753 267.8372 15.08851448 55186,6917.845,95.437,540.51,538.911,0.0
52501.0,STARLINK-3907,PAYLOAD,2023-05-02 18:26:34,15.08844118,0.0001336,53.2169,46.2781,90.2953,269.8192,0.0001544,2.17e-05,0.0,0 STARLINK-3907,1 52501U 22049BC  23122.76845719  .00002170  00000-0  15440-3 0  9994,2 52501  53.2169  46.2781 0001336  90.2953 269.8192 15.08844118 55265,6917.868,95.437,540.657,538.809,0.0
52501.0,STARLINK-3907,PAYLOAD,2023-05-02 20:01:57,15.08845726,0.0001113,53.2153,45.9814,95.4877,264.6242,0.00014332,1.994e-05,0.0,0 STARLINK-3907,1 52501U 22049BC  23122.83469471  .00001994  00000-0  14332-3 0  9991,2 52501  53.2153  45.9814 0001113  95.4877 264.6242 15.08845726 55115,6917.863,95.437,540.498,538.958,0.0
52501.0,STARLINK-3907,PAYLOAD,2023-05-03 02:23:29,15.08853447,0.0001191,53.2175,44.7934,93.778,266.3348,0.000285,4.252e-05,0.0,0 STARLINK-3907,1 52501U 22049BC  23123.09965243  .00004252  00000-0  28500-3 0  9990,2 52501  53.2175  44.7934 0001191  93.7780 266.3348 15.08853447 55316,6917.839,95.437,540.528,538.88,0.0
52501.0,STARLINK-3907,PAYLOAD,2023-05-03 18:17:21,15.08843663,0.0001487,53.2174,41.8215,85.8757,274.2405,7.4846e-05,9.04e-06,0.0,0 STARLINK-3907,1 52501U 22049BC  23123.76205580  .00000904  00000-0  74846-4 0  9990,2 52501  53.2174  41.8215 0001487  85.8757 274.2405 15.08843663 55411,6917.869,95.437,540.763,538.706,0.0
52501.0,STARLINK-3907,PAYLOAD,2023-05-04 11:46:36,15.088433,0.0001187,53.2176,38.5499,79.917,280.1956,8.7861e-05,1.111e-05,0.0,0 STARLINK-3907,1 52501U 22049BC  23124.49069569  .00001111  00000-0  87861-4 0  9998,2 52501  53.2176  38.5499 0001187  79.9170 280.1956 15.08843300 55369,6917.87,95.437,540.556,538.914,0.0
52501.0,STARLINK-3907,PAYLOAD,2023-05-04 18:08:08,15.0883902,0.0001255,53.2175,37.3601,96.4339,263.6796,7.6547e-05,9.31e-06,0.0,0 STARLINK-3907,1 52501U 22049BC  23124.75565821  .00000931  00000-0  76547-4 0  9997,2 52501  53.2175  37.3601 0001255  96.4339 263.6796 15.08839020 55404,6917.883,95.438,540.617,538.88,0.0
52501.0,STARLINK-3907,PAYLOAD,2023-05-05 00:29:41,15.08843831,0.0001166,53.2171,36.1706,90.8316,269.281,0.00013826,1.913e-05,0.0,0 STARLINK-3907,1 52501U 22049BC  23125.02061626  .00001913  00000-0  13826-3 0  9993,2 52501  53.2171  36.1706 0001166  90.8316 269.2810 15.08843831 55603,6917.869,95.437,540.54,538.927,0.0
52501.0,STARLINK-3907,PAYLOAD,2023-05-05 21:09:42,15.08845329,0.0001196,53.2165,32.3043,90.8669,269.2461,0.00018482,2.655e-05,0.0,0 STARLINK-3907,1 52501U 22049BC  23125.88173626  .00002655  00000-0  18482-3 0  9998,2 52501  53.2165  32.3043 0001196  90.8669 269.2461 15.08845329 55574,6917.864,95.437,540.556,538.902,0.0
52501.0,STARLINK-3907,PAYLOAD,2023-05-06 03:31:14,15.08851823,0.0001217,53.2167,31.1154,97.1578,262.9553,0.00027686,4.122e-05,0.0,0 STARLINK-3907,1 52501U 22049BC  23126.14669271  .00004122  00000-0  27686-3 0  9991,2 52501  53.2167  31.1154 0001217  97.1578 262.9553 15.08851823 55779,6917.844,95.437,540.551,538.867,0.0
52501.0,STARLINK-3907,PAYLOAD,2023-05-07 03:22:01,15.08846612,0.0001244,53.217,26.6558,87.1554,272.958,0.0002043,2.966e-05,0.0,0 STARLINK-3907,1 52501U 22049BC  23127.14029657  .00002966  00000-0  20430-3 0  9994,2 52501  53.2170  26.6558 0001244  87.1554 272.9580 15.08846612 55921,6917.86,95.437,540.586,538.865,0.0
52501.0,STARLINK-3907,PAYLOAD,2023-05-07 20:51:16,15.08830515,0.0001631,53.2167,23.383,123.0486,237.0663,-7.4844e-05,-1.479e-05,0.0,0 STARLINK-3907,1 52501U 22049BC  23127.86894443 -.00001479  00000-0 -74844-4 0  9995,2 52501  53.2167  23.3830 0001631 123.0486 237.0663 15.08830515 56030,6917.909,95.438,540.903,538.646,0.0
52501.0,STARLINK-3907,PAYLOAD,2023-05-07 22:26:40,15.088296,0.0001413,53.2169,23.0855,118.5472,241.5662,-7.0809e-05,-1.414e-05,0.0,0 STARLINK-3907,1 52501U 22049BC  23127.93518556 -.00001414  00000-0 -70809-4 0  9997,2 52501  53.2169  23.0855 0001413 118.5472 241.5662 15.08829600 55882,6917.912,95.438,540.755,538.8,0.0
52501.0,STARLINK-3907,PAYLOAD,2023-05-08 20:42:03,15.08847308,9.94e-05,53.2169,18.9218,84.9948,275.1158,0.00042344,6.459e-05,0.0,0 STARLINK-3907,1 52501U 22049BC  23128.86254606  .00006459  00000-0  42344-3 0  9997,2 52501  53.2169  18.9218 0000994  84.9948 275.1158 15.08847308 56187,6917.858,95.437,540.411,539.035,0.0
52501.0,STARLINK-3907,PAYLOAD,2023-05-08 22:17:26,15.08853479,0.0001009,53.2172,18.6275,95.7381,264.3727,0.00058141,8.981e-05,0.0,0 STARLINK-3907,1 52501U 22049BC  23128.92878458  .00008981  00000-0  58141-3 0  9995,2 52501  53.2172  18.6275 0001009  95.7381 264.3727 15.08853479 56032,6917.839,95.437,540.402,539.006,0.0
52501.0,STARLINK-3907,PAYLOAD,2023-05-08 23:52:50,15.08858843,0.0001018,53.2171,18.3305,102.0601,258.0506,0.00089354,0.00013969,0.0,0 STARLINK-3907,1 52501U 22049BC  23128.99502435  .00013969  00000-0  89354-3 0  9993,2 52501  53.2171  18.3305 0001018 102.0601 258.0506 15.08858843 56045,6917.823,95.436,540.392,538.984,0.0
52501.0,STARLINK-3907,PAYLOAD,2023-05-10 01:19:00,15.08849942,8.98e-05,53.2174,13.573,99.6702,260.4392,0.00037025,5.611e-05,0.0,0 STARLINK-3907,1 52501U 22049BC  23130.05486208  .00005611  00000-0  37025-3 0  9995,2 52501  53.2174  13.5730 0000898  99.6702 260.4392 15.08849942 56203,6917.85,95.437,540.336,539.094,0.0
52501.0,STARLINK-3907,PAYLOAD,2023-05-10 18:48:15,15.08841989,0.0001595,53.2162,10.3071,60.5678,299.5473,0.00038032,5.77e-05,0.0,0 STARLINK-3907,1 52501U 22049BC  23130.78350776  .00005770  00000-0  38032-3 0  9990,2 52501  53.2162  10.3071 0001595  60.5678 299.5473 15.08841989 56472,6917.874,95.437,540.843,538.636,0.0
52501.0,STARLINK-3907,PAYLOAD,2023-05-10 23:34:23,15.08848509,0.0001159,53.2173,9.4122,86.5943,273.5182,0.00016024,2.264e-05,0.0,0 STARLINK-3907,1 52501U 22049BC  23130.98222190  .00002264  00000-0  16024-3 0  9992,2 52501  53.2173   9.4122 0001159  86.5943 273.5182 15.08848509 56349,6917.854,95.437,540.521,538.918,0.0
52501.0,STARLINK-3907,PAYLOAD,2023-05-11 21:49:48,15.08839868,0.000173,53.2164,5.2507,58.971,301.1452,0.000151,2.116e-05,0.0,0 STARLINK-3907,1 52501U 22049BC  23131.90959141  .00002116  00000-0  15100-3 0  9998,2 52501  53.2164   5.2507 0001730  58.9710 301.1452 15.08839868 56649,6917.881,95.438,540.943,538.549,0.0
52501.0,STARLINK-3907,PAYLOAD,2023-05-12 02:35:57,15.08843229,0.0001127,53.2177,4.3522,80.0766,280.0353,0.00021269,3.099e-05,0.0,0 STARLINK-3907,1 52501U 22049BC  23132.10830834  .00003099  00000-0  21269-3 0  9992,2 52501  53.2177   4.3522 0001127  80.0766 280.0353 15.08843229 56514,6917.871,95.437,540.515,538.956,0.0
52501.0,STARLINK-3907,PAYLOAD,2023-05-12 21:40:35,15.08850826,0.0001066,53.2175,0.7852,80.1063,280.005,0.00030839,4.625e-05,0.0,0 STARLINK-3907,1 52501U 22049BC  23132.90318537  .00004625  00000-0  30839-3 0  9990,2 52501  53.2175   0.7852 0001066  80.1063 280.0050 15.08850826 56639,6917.847,95.437,540.45,538.975,0.0
52501.0,STARLINK-3907,PAYLOAD,2023-05-13 00:51:21,15.08861622,0.0001021,53.2183,0.1889,86.8539,273.257,0.00047086,7.218e-05,0.0,0 STARLINK-3907,1 52501U 22049BC  23133.03566203  .00007218  00000-0  47086-3 0  9993,2 52501  53.2183   0.1889 0001021  86.8539 273.2570 15.08861622 56811,6917.814,95.436,540.386,538.973,0.0
52501.0,STARLINK-3907,PAYLOAD,2023-05-13 21:31:22,15.08846344,0.0001119,53.2176,356.3262,75.9423,284.1693,0.00013248,1.822e-05,0.0,0 STARLINK-3907,1 52501U 22049BC  23133.89678665  .00001822  00000-0  13248-3 0  9991,2 52501  53.2176 356.3262 0001119  75.9423 284.1693 15.08846344 56780,6917.861,95.437,540.5,538.952,0.0
52501.0,STARLINK-3907,PAYLOAD,2023-05-14 02:17:31,15.08851475,0.0001126,53.2181,355.434,76.5739,283.5379,0.00021917,3.203e-05,0.0,0 STARLINK-3907,1 52501U 22049BC  23134.09550403  .00003203  00000-0  21917-3 0  9990,2 52501  53.2181 355.4340 0001126  76.5739 283.5379 15.08851475 56974,6917.845,95.437,540.489,538.931,0.0
